[{"OBJECT_NAME":"YAOGAN-12","OBJECT_ID":"2011-066B","EPOCH":"2026-03-09T23:39:51.505056","MEAN_MOTION":15.25407482,"ECCENTRICITY":0.00091131,"INCLINATION":97.1283,"RA_OF_ASC_NODE":112.2403,"ARG_OF_PERICENTER":209.5466,"MEAN_ANOMALY":150.5259,"EPHEMERIS_TYPE":0,"CLASSIFICATION_TYPE":"U","NORAD_CAT_ID":37875,"ELEMENT_SET_NO":999,"REV_AT_EPOCH":79691,"BSTAR":0.0002218082,"MEAN_MOTION_DOT":5.54e-5,"MEAN_MOTION_DDOT":0},{"OBJECT_NAME":"STARLINK-35764","OBJECT_ID":"2025-299H","EPOCH":"2026-03-09T22:00:01.999584","MEAN_MOTION":15.33219164,"ECCENTRICITY":0.00011543,"INCLINATION":43.0006,"RA_OF_ASC_NODE":167.6811,"ARG_OF_PERICENTER":268.9398,"MEAN_ANOMALY":10.8948,"EPHEMERIS_TYPE":0,"CLASSIFICATION_TYPE":"U","NORAD_CAT_ID":67109,"ELEMENT_SET_NO":999,"REV_AT_EPOCH":589,"BSTAR":-0.068626108,"MEAN_MOTION_DOT":-0.02032733,"MEAN_MOTION_DDOT":0}]
